{"type": "FeatureCollection", "features": [ {"type": "Feature", "properties": {"norad_id": 31985, "name": "FENGYUN 1C DEB", "group": "fengyun-1c-debris", "lat": -30.06494213569306, "lon": -103.65058121563425, "alt_km": 827.6023629339661, "timestamp": "2025-12-16T13:52:37.808697+00:00", "meta": {"OBJECT_NAME": "FENGYUN 1C DEB", "OBJECT_ID": "1999-025CPN", "EPOCH": "2025-12-13T23:34:50.116800", "MEAN_MOTION": 14.22977716, "ECCENTRICITY": 0.01504255, "INCLINATION": 98.2196, "RA_OF_ASC_NODE": 249.1254, "ARG_OF_PERICENTER": 243.0612, "MEAN_ANOMALY": 115.5134, "EPHEMERIS_TYPE": 0, "CLASSIFICATION_TYPE": "U", "NORAD_CAT_ID": 31985, "ELEMENT_SET_NO": 999, "REV_AT_EPOCH": 95628, "BSTAR": 0.00043991826, "MEAN_MOTION_DOT": 1.071e-05, "MEAN_MOTION_DDOT": 0}, "tle": {"line1": "1 31985U 99025CPN 25347.98252450  .00001071  00000+0  43992-3 0  9995", "line2": "2 31985  98.2196 249.1254 0150425 243.0612 115.5134 14.22977716956281"}}, "geometry": {"type": "Point", "coordinates": [-103.65058121563425, -30.06494213569306]}}, {"type": "Feature", "properties": {"norad_id": 31987, "name": "FENGYUN 1C DEB", "group": "fengyun-1c-debris", "lat": 52.65717088667583, "lon": -47.61641485170633, "alt_km": 738.6548432629061, "timestamp": "2025-12-16T13:52:37.808708+00:00", "meta": {"OBJECT_NAME": "FENGYUN 1C DEB", "OBJECT_ID": "1999-025CPQ", "EPOCH": "2025-12-15T21:08:44.288160", "MEAN_MOTION": 14.44933533, "ECCENTRICITY": 0.00516418, "INCLINATION": 99.0395, "RA_OF_ASC_NODE": 323.6855, "ARG_OF_PERICENTER": 148.1982, "MEAN_ANOMALY": 241.7444, "EPHEMERIS_TYPE": 0, "CLASSIFICATION_TYPE": "U", "NORAD_CAT_ID": 31987, "ELEMENT_SET_NO": 999, "REV_AT_EPOCH": 96415, "BSTAR": 0.00070092849, "MEAN_MOTION_DOT": 2.433e-05, "MEAN_MOTION_DDOT": 0}, "tle": {"line1": "1 31987U 99025CPQ 25349.88106815  .00002433  00000+0  70093-3 0  9996", "line2": "2 31987  99.0395 323.6855 0051641 148.1982 241.7444 14.44933533964157"}}, "geometry": {"type": "Point", "coordinates": [-47.61641485170633, 52.65717088667583]}}, {"type": "Feature", "properties": {"norad_id": 31989, "name": "FENGYUN 1C DEB", "group": "fengyun-1c-debris", "lat": 3.5841129234736693, "lon": 51.133161381411504, "alt_km": 895.9413997117035, "timestamp": "2025-12-16T13:52:37.808718+00:00", "meta": {"OBJECT_NAME": "FENGYUN 1C DEB", "OBJECT_ID": "1999-025CPS", "EPOCH": "2025-12-15T16:11:35.170368", "MEAN_MOTION": 13.93591985, "ECCENTRICITY": 0.0115261, "INCLINATION": 99.2132, "RA_OF_ASC_NODE": 50.8156, "ARG_OF_PERICENTER": 291.0863, "MEAN_ANOMALY": 221.027, "EPHEMERIS_TYPE": 0, "CLASSIFICATION_TYPE": "U", "NORAD_CAT_ID": 31989, "ELEMENT_SET_NO": 999, "REV_AT_EPOCH": 93758, "BSTAR": 0.00049954957, "MEAN_MOTION_DOT": 6.47e-06, "MEAN_MOTION_DDOT": 0}, "tle": {"line1": "1 31989U 99025CPS 25349.67471262  .00000647  00000+0  49955-3 0  9994", "line2": "2 31989  99.2132  50.8156 0115261 291.0863 221.0270 13.93591985937587"}}, "geometry": {"type": "Point", "coordinates": [51.133161381411504, 3.5841129234736693]}}, {"type": "Feature", "properties": {"norad_id": 31990, "name": "FENGYUN 1C DEB", "group": "fengyun-1c-debris", "lat": -40.574352044790636, "lon": 20.749982579785218, "alt_km": 1207.1643819948104, "timestamp": "2025-12-16T13:52:37.808728+00:00", "meta": {"OBJECT_NAME": "FENGYUN 1C DEB", "OBJECT_ID": "1999-025CPT", "EPOCH": "2025-12-15T08:06:54.062208", "MEAN_MOTION": 13.57203677, "ECCENTRICITY": 0.02602625, "INCLINATION": 99.1605, "RA_OF_ASC_NODE": 11.6518, "ARG_OF_PERICENTER": 177.9091, "MEAN_ANOMALY": 203.3723, "EPHEMERIS_TYPE": 0, "CLASSIFICATION_TYPE": "U", "NORAD_CAT_ID": 31990, "ELEMENT_SET_NO": 999, "REV_AT_EPOCH": 62807, "BSTAR": 0.00029909079, "MEAN_MOTION_DOT": 2.26e-06, "MEAN_MOTION_DDOT": 0}, "tle": {"line1": "1 31990U 99025CPT 25349.33812572  .00000226  00000+0  29909-3 0  9992", "line2": "2 31990  99.1605  11.6518 0260262 177.9091 203.3723 13.57203677628072"}}, "geometry": {"type": "Point", "coordinates": [20.749982579785218, -40.574352044790636]}}, {"type": "Feature", "properties": {"norad_id": 31991, "name": "FENGYUN 1C DEB", "group": "fengyun-1c-debris", "lat": 32.58163904323169, "lon": 173.04658877337025, "alt_km": 850.591594281158, "timestamp": "2025-12-16T13:52:37.808738+00:00", "meta": {"OBJECT_NAME": "FENGYUN 1C DEB", "OBJECT_ID": "1999-025CPU", "EPOCH": "2025-12-10T18:22:22.024416", "MEAN_MOTION": 13.6127752, "ECCENTRICITY": 0.02446272, "INCLINATION": 100.4864, "RA_OF_ASC_NODE": 173.6062, "ARG_OF_PERICENTER": 58.2006, "MEAN_ANOMALY": 304.2706, "EPHEMERIS_TYPE": 0, "CLASSIFICATION_TYPE": "U", "NORAD_CAT_ID": 31991, "ELEMENT_SET_NO": 999, "REV_AT_EPOCH": 62060, "BSTAR": 0.00020963887, "MEAN_MOTION_DOT": 1.45e-06, "MEAN_MOTION_DDOT": 0}, "tle": {"line1": "1 31991U 99025CPU 25344.76553269  .00000145  00000+0  20964-3 0  9992", "line2": "2 31991 100.4864 173.6062 0244627  58.2006 304.2706 13.61277520620609"}}, "geometry": {"type": "Point", "coordinates": [173.04658877337025, 32.58163904323169]}}, {"type": "Feature", "properties": {"norad_id": 31992, "name": "FENGYUN 1C DEB", "group": "fengyun-1c-debris", "lat": 62.9914981797672, "lon": 148.46925677965396, "alt_km": 1181.8704738851975, "timestamp": "2025-12-16T13:52:37.808748+00:00", "meta": {"OBJECT_NAME": "FENGYUN 1C DEB", "OBJECT_ID": "1999-025CPV", "EPOCH": "2025-12-12T04:04:23.293056", "MEAN_MOTION": 13.22988689, "ECCENTRICITY": 0.05424019, "INCLINATION": 99.1658, "RA_OF_ASC_NODE": 306.1111, "ARG_OF_PERICENTER": 30.97, "MEAN_ANOMALY": 332.2249, "EPHEMERIS_TYPE": 0, "CLASSIFICATION_TYPE": "U", "NORAD_CAT_ID": 31992, "ELEMENT_SET_NO": 999, "REV_AT_EPOCH": 53867, "BSTAR": 0.001808457, "MEAN_MOTION_DOT": 1.63e-05, "MEAN_MOTION_DDOT": 0}, "tle": {"line1": "1 31992U 99025CPV 25346.16971404  .00001630  00000+0  18085-2 0  9994", "line2": "2 31992  99.1658 306.1111 0542401  30.9700 332.2249 13.22988689538672"}}, "geometry": {"type": "Point", "coordinates": [148.46925677965396, 62.9914981797672]}}, {"type": "Feature", "properties": {"norad_id": 31993, "name": "FENGYUN 1C DEB", "group": "fengyun-1c-debris", "lat": -30.940664880766754, "lon": 136.8392689383135, "alt_km": 1123.0994335062605, "timestamp": "2025-12-16T13:52:37.808758+00:00", "meta": {"OBJECT_NAME": "FENGYUN 1C DEB", "OBJECT_ID": "1999-025CPW", "EPOCH": "2025-12-14T04:46:59.917440", "MEAN_MOTION": 13.27456305, "ECCENTRICITY": 0.04218085, "INCLINATION": 99.2406, "RA_OF_ASC_NODE": 320.3102, "ARG_OF_PERICENTER": 131.7316, "MEAN_ANOMALY": 232.0693, "EPHEMERIS_TYPE": 0, "CLASSIFICATION_TYPE": "U", "NORAD_CAT_ID": 31993, "ELEMENT_SET_NO": 999, "REV_AT_EPOCH": 88962, "BSTAR": 0.0019620406, "MEAN_MOTION_DOT": 1.397e-05, "MEAN_MOTION_DDOT": 0}, "tle": {"line1": "1 31993U 99025CPW 25348.19930460  .00001397  00000+0  19620-2 0  9993", "line2": "2 31993  99.2406 320.3102 0421808 131.7316 232.0693 13.27456305889627"}}, "geometry": {"type": "Point", "coordinates": [136.8392689383135, -30.940664880766754]}}, {"type": "Feature", "properties": {"norad_id": 31994, "name": "FENGYUN 1C DEB", "group": "fengyun-1c-debris", "lat": -81.26513694983083, "lon": 86.55314257049669, "alt_km": 995.134522797719, "timestamp": "2025-12-16T13:52:37.808768+00:00", "meta": {"OBJECT_NAME": "FENGYUN 1C DEB", "OBJECT_ID": "1999-025CPX", "EPOCH": "2025-12-15T19:24:15.435936", "MEAN_MOTION": 13.9575895, "ECCENTRICITY": 0.01624128, "INCLINATION": 98.5392, "RA_OF_ASC_NODE": 343.7629, "ARG_OF_PERICENTER": 137.5796, "MEAN_ANOMALY": 223.8055, "EPHEMERIS_TYPE": 0, "CLASSIFICATION_TYPE": "U", "NORAD_CAT_ID": 31994, "ELEMENT_SET_NO": 999, "REV_AT_EPOCH": 56839, "BSTAR": -6.9669036e-05, "MEAN_MOTION_DOT": -1.44e-06, "MEAN_MOTION_DDOT": 0}, "tle": {"line1": "1 31994U 99025CPX 25349.80851199 -.00000144  00000+0 -69669-4 0  9995", "line2": "2 31994  98.5392 343.7629 0162412 137.5796 223.8055 13.95758950568390"}}, "geometry": {"type": "Point", "coordinates": [86.55314257049669, -81.26513694983083]}}, {"type": "Feature", "properties": {"norad_id": 31997, "name": "FENGYUN 1C DEB", "group": "fengyun-1c-debris", "lat": 65.89011846134055, "lon": -115.11876877257295, "alt_km": 1219.4554126539742, "timestamp": "2025-12-16T13:52:37.808778+00:00", "meta": {"OBJECT_NAME": "FENGYUN 1C DEB", "OBJECT_ID": "1999-025CQA", "EPOCH": "2025-12-15T21:25:47.322912", "MEAN_MOTION": 13.60688194, "ECCENTRICITY": 0.02902938, "INCLINATION": 102.5107, "RA_OF_ASC_NODE": 34.2632, "ARG_OF_PERICENTER": 266.7026, "MEAN_ANOMALY": 90.0859, "EPHEMERIS_TYPE": 0, "CLASSIFICATION_TYPE": "U", "NORAD_CAT_ID": 31997, "ELEMENT_SET_NO": 999, "REV_AT_EPOCH": 61726, "BSTAR": 0.0019849043, "MEAN_MOTION_DOT": 1.913e-05, "MEAN_MOTION_DDOT": 0}, "tle": {"line1": "1 31997U 99025CQA 25349.89290883  .00001913  00000+0  19849-2 0  9990", "line2": "2 31997 102.5107  34.2632 0290293 266.7026  90.0859 13.60688194617260"}}, "geometry": {"type": "Point", "coordinates": [-115.11876877257295, 65.89011846134055]}}, {"type": "Feature", "properties": {"norad_id": 32086, "name": "FENGYUN 1C DEB", "group": "fengyun-1c-debris", "lat": 66.64436600724545, "lon": -112.42809795505931, "alt_km": 781.9117947380764, "timestamp": "2025-12-16T13:52:37.808788+00:00", "meta": {"OBJECT_NAME": "FENGYUN 1C DEB", "OBJECT_ID": "1999-025CQC", "EPOCH": "2025-12-15T09:16:38.492832", "MEAN_MOTION": 13.68906859, "ECCENTRICITY": 0.02998061, "INCLINATION": 99.2704, "RA_OF_ASC_NODE": 44.2007, "ARG_OF_PERICENTER": 128.7368, "MEAN_ANOMALY": 234.0986, "EPHEMERIS_TYPE": 0, "CLASSIFICATION_TYPE": "U", "NORAD_CAT_ID": 32086, "ELEMENT_SET_NO": 999, "REV_AT_EPOCH": 61817, "BSTAR": 0.0014673887, "MEAN_MOTION_DOT": 1.693e-05, "MEAN_MOTION_DDOT": 0}, "tle": {"line1": "1 32086U 99025CQC 25349.38655663  .00001693  00000+0  14674-2 0  9991", "line2": "2 32086  99.2704  44.2007 0299806 128.7368 234.0986 13.68906859618178"}}, "geometry": {"type": "Point", "coordinates": [-112.42809795505931, 66.64436600724545]}}]}